SCD 1                   
1 22490U 93009B   26183.13244091  .00000436  00000+0  68291-4 0  9994
2 22490  24.9688 115.2955 0041634 296.2972  85.9552 14.46124624763283
TECHSAT 1B (GO-32)      
1 25397U 98043D   26183.44759188  .00000060  00000+0  46153-4 0  9994
2 25397  99.0074 176.5914 0001766 135.3675 224.7645 14.24431385453502
SCD 2                   
1 25504U 98060A   26183.48914771  .00000410  00000+0  63462-4 0  9999
2 25504  24.9966 337.7942 0016538 285.1720 119.9854 14.45531593462545
DLR-TUBSAT              
1 25757U 99029B   26183.58704630  .00000116  00000+0  40340-4 0  9990
2 25757  98.6702 179.5982 0013216 306.3773  53.6202 14.52430854435481
TERRA                   
1 25994U 99068A   26183.64950439  .00000470  00000+0  10468-3 0  9993
2 25994  97.9448 232.5822 0002747 148.4312   7.6199 14.61115707411864
MAROC-TUBSAT            
1 27004U 01056D   26183.48039367 -.00000037  00000+0  11112-4 0  9995
2 27004  99.8090   0.6286 0020607 103.3917 312.0631 13.70263052228288
AQUA                    
1 27424U 02022A   26183.66602323  .00000921  00000+0  19286-3 0  9993
2 27424  98.4285 153.2589 0000691  81.2980  29.1396 14.62182063285530
SHIYAN-1 (SY-1)         
1 28220U 04012A   26183.18725711  .00015404  00000+0  46818-3 0  9996
2 28220  97.8689 262.2336 0004345 335.4967  24.6068 15.34147176213393
AURA                    
1 28376U 04026A   26183.52899055  .00000890  00000+0  18993-3 0  9990
2 28376  98.3424 140.1100 0001181  86.3142 273.8194 14.61352534168452
IRS-P5 (CARTOSAT-1)     
1 28649U 05017A   26183.51306474  .00001500  00000+0  15672-3 0  9991
2 28649  97.5305 205.8824 0002107  62.0385 298.1047 14.91090758146100
SINAH 1                 
1 28893U 05043D   26183.56712747  .00000416  00000+0  88342-4 0  9990
2 28893  98.2881 317.9811 0013541 224.3500 135.6618 14.64168472102778
RESURS-DK 1             
1 29228U 06021A   26183.56932741  .00002490  00000+0  14561-3 0  9993
2 29228  69.9340 299.7346 0006697 284.6175  75.4249 15.13280401104907
ARIRANG-2 (KOMPSAT-2)   
1 29268U 06031A   26183.60171185  .00000199  00000+0  45818-4 0  9994
2 29268  97.8304   7.3020 0015281  29.6237  63.3807 14.64669102 63733
LAPAN-TUBSAT            
1 29709U 07001A   26183.60735515  .00000305  00000+0  41510-4 0  9999
2 29709  98.1338 183.1793 0013061 130.9215 229.3133 14.85963758 53440
HAIYANG-1B              
1 31113U 07010A   26183.45731442  .00000106  00000+0  56083-4 0  9999
2 31113  98.3502 164.7107 0014021 151.3096 208.8862 14.31030796  2827
COSMO-SKYMED 1          
1 31598U 07023A   26183.57400097  .00002085  00000+0  18557-3 0  9993
2 31598  97.8853  15.5597 0001353  82.8894 277.2481 14.97176838 32090
TERRASAR-X              
1 31698U 07026A   26182.61687754  .00000688  00000+0  35949-4 0  9990
2 31698  97.4453 190.1187 0001948  88.1804 271.9654 15.19153219 55415
WORLDVIEW-1 (WV-1)      
1 32060U 07041A   26183.58711905  .00006424  00000+0  26468-3 0  9993
2 32060  97.3897 303.1118 0000978 303.5999  56.5145 15.24437067 45223
YAOGAN-3                
1 32289U 07055A   26183.63185612  .00002177  00000+0  22675-3 0  9994
2 32289  97.8140 213.3572 0001770  83.5211 276.6209 14.90839523  8175
COSMO-SKYMED 2          
1 32376U 07059A   26183.62095106  .00000493  00000+0  68443-4 0  9995
2 32376  97.8889   6.9951 0001318  90.4258 269.7106 14.82158414  4297
RADARSAT-2              
1 32382U 07061A   26183.57134377  .00000183  00000+0  87960-4 0  9994
2 32382  98.5773 190.2838 0001315  82.9600 277.1732 14.29981251968155
CARTOSAT-2A             
1 32783U 08021A   26183.60444641  .00000635  00000+0  92110-4 0  9993
2 32783  97.7623 231.7865 0013230  64.1555 296.1020 14.79261321981088
HUANJING 1A (HJ-1A)     
1 33320U 08041A   26183.60706399  .00001395  00000+0  17309-3 0  9994
2 33320  97.6685 168.8497 0020717  87.5044 272.8542 14.84023712960694
HUANJING 1B (HJ-1B)     
1 33321U 08041B   26183.65064605  .00000913  00000+0  11633-3 0  9996
2 33321  97.6519 172.0163 0037393 130.8381 229.6085 14.83343123960706
GEOEYE 1                
1 33331U 08042A   26183.59101592  .00000556  00000+0  11365-3 0  9993
2 33331  98.1334 257.3341 0004885  25.9976 334.1472 14.64640601952407
THEOS                   
1 33396U 08049A   26183.61003855  .00000132  00000+0  81750-4 0  9993
2 33396  98.5564 240.3926 0001151  79.4081 280.7226 14.20135901920156
COSMO-SKYMED 3          
1 33412U 08054A   26183.54767757  .00005625  00000+0  37856-3 0  9997
2 33412  97.8262  42.3724 0014839 210.2409 149.7963 15.07051844959258
YAOGAN-4                
1 33446U 08061A   26183.54848853  .00001203  00000+0  15363-3 0  9996
2 33446  97.9306 116.9455 0014924  26.2095 333.9871 14.83231208947940
GOSAT (IBUKI)           
1 33492U 09002A   26183.54752631  .00000183  00000+0  40699-4 0  9998
2 33492  98.0906 294.4372 0001253  80.3245 279.8101 14.67538576933712
DEIMOS-1                
1 35681U 09041A   26183.58302559  .00000263  00000+0  45878-4 0  9990
2 35681  97.7417 340.1439 0002414 109.4525 250.6946 14.75251917909159
